[{"OBJECT_NAME":"STARLINK-31039","OBJECT_ID":"2024-011V","EPOCH":"2026-03-09T23:33:07.163424","MEAN_MOTION":15.30180102,"ECCENTRICITY":0.0001024,"INCLINATION":53.1634,"RA_OF_ASC_NODE":12.4032,"ARG_OF_PERICENTER":78.2875,"MEAN_ANOMALY":281.824,"EPHEMERIS_TYPE":0,"CLASSIFICATION_TYPE":"U","NORAD_CAT_ID":58784,"ELEMENT_SET_NO":999,"REV_AT_EPOCH":12031,"BSTAR":9.7795374e-5,"MEAN_MOTION_DOT":2.537e-5,"MEAN_MOTION_DDOT":0},{"OBJECT_NAME":"TOMORROW-S4","OBJECT_ID":"2024-247K","EPOCH":"2026-03-09T12:47:35.836224","MEAN_MOTION":15.27717249,"ECCENTRICITY":0.00044343,"INCLINATION":44.9818,"RA_OF_ASC_NODE":117.9996,"ARG_OF_PERICENTER":210.4078,"MEAN_ANOMALY":149.6548,"EPHEMERIS_TYPE":0,"CLASSIFICATION_TYPE":"U","NORAD_CAT_ID":62386,"ELEMENT_SET_NO":999,"REV_AT_EPOCH":6770,"BSTAR":0.00046927249,"MEAN_MOTION_DOT":0.00012677,"MEAN_MOTION_DDOT":0}]
